STARLINK-34672          
1 65894U 25224N   26068.10850663  .00024947  00000+0  85145-3 0  9999
2 65894  53.1616  14.1636 0000531  91.8621 268.2441 15.30204692 24783
2025-313BC              
1 67298U 25313BC  26068.18968176  .00075331  00000+0  26410-2 0  9997
2 67298  97.3985 144.8110 0008478 328.9209  31.1528 15.29126358  7890
